254P/McNaught,e,32.5626,129.1867,219.6825,4.616420,0.0993679,0.31955339,93.0731,04/25.0/2023,2000,g 11.0,4.0
# From MPEC 2021-UA9
255P/Levy,e,13.4118,275.6580,186.0140,2.942237,0.1952934,0.71157108,44.8582,04/25.0/2023,2000,g 14.1,4.0
# From MPEC 2023-HD1
256P/LINEAR,e,27.6196,81.3290,124.1898,4.639682,0.0986215,0.41799622,4.3179,04/25.0/2023,2000,g 14.5,4.0
# From MPEC 2023-A50
257P/Catalina,e,20.2197,207.7146,117.7728,3.764713,0.1349293,0.42985325,129.0595,04/25.0/2023,2000,g 11.5,4.0
# From MPEC 2021-U31
258P/PANSTARRS,e,6.7475,126.2347,25.7196,4.393405,0.1070292,0.20853356,111.4944,04/25.0/2023,2000,g 13.0,4.0
# From MPC106349
259P/Garradd,e,15.8973,51.4323,257.5262,2.729138,0.2186079,0.33886889,96.3742,04/25.0/2023,2000,g 15.5,4.0
# From MPEC 2022-O01
260P/McNaught,e,15.0542,349.3337,18.4560,3.623366,0.1429012,0.60931566,188.9211,04/25.0/2023,2000,g 13.5,4.0
# From MPEC 2021-J28
261P/Larson,e,6.0718,291.1000,67.2864,3.490534,0.1511354,0.42327354,212.3618,04/25.0/2023,2000,g 14.0,4.0
# From MPC 82322
262P/McNaught-Russell,e,29.2950,217.8627,171.0652,6.871191,0.0547213,0.81633826,207.4437,04/25.0/2023,2000,g 13.5,4.0
# From MPEC 2023-HD1
263P/Gibbs,e,11.5216,105.5073,35.0482,3.041884,0.1857762,0.59357225,15.6820,04/25.0/2023,2000,g 17.3,4.0
# From MPC114608
264P/Larsen,e,25.6990,219.9207,346.6210,3.881800,0.1288707,0.37685563,175.7808,04/25.0/2023,2000,g 13.0,4.0
# From MPC 79870
265P/LINEAR,e,14.3603,342.9266,33.4997,4.257130,0.1122093,0.64757838,90.3043,04/25.0/2023,2000,g 14.5,4.0
# From MPEC 2021-F20
266P/Christensen,e,3.4269,4.9872,97.6718,3.530972,0.1485466,0.34008935,163.4750,04/25.0/2023,2000,g 14.7,4.0
# From MPC114608
267P/LONEOS,e,6.1441,228.5653,114.2476,3.210355,0.1713462,0.61434281,297.3259,04/25.0/2023,2000,g 19.5,4.0
# From MPC 92277
268P/Bernardi,e,15.6762,126.1644,359.8315,4.591527,0.1001771,0.47669917,299.5262,04/25.0/2023,2000,g 14.0,4.0
# From MPC104795
269P/Jedicke,e,7.0820,241.7542,225.6796,7.067022,0.0524626,0.43188978,164.1082,04/25.0/2023,2000,g 10.0,4.0
# From MPC 88332
270P/Gehrels,e,2.9247,223.0414,209.7697,6.657250,0.0573802,0.46928563,206.7573,04/25.0/2023,2000,g  8.0,4.0
# From MPC 92277
271P/van Houten-Lemmon,e,6.8715,9.3133,36.4432,7.035251,0.0528183,0.39586593,188.3492,04/25.0/2023,2000,g 11.0,4.0
# From MPEC 2023-D41
272P/NEAT,e,18.0729,109.4605,27.8936,4.461878,0.1045749,0.45493170,29.4871,04/25.0/2023,2000,g 16.0,2.0
# From MPC 82723
273P/Pons-Gambart,e,136.6443,320.3908,20.2835,31.98498,0.0054486,0.97441155,0.0000,12/22.1151/2012,2000,g 11.5,4.0
# From MPEC 2023-HD1
274P/Tombaugh-Tenagra,e,15.8160,81.3265,38.4744,4.377554,0.1076110,0.43966352,41.0556,04/25.0/2023,2000,g 13.9,4.0
# From MPC 81862
275P/Hermann,e,21.2675,348.7514,173.9365,5.781479,0.0708999,0.71304564,268.9940,04/25.0/2023,2000,g 17.0,4.0
# From MPEC 2023-A50
276P/Vorobjov,e,14.8118,211.3429,199.4620,5.327115,0.0801615,0.26822413,312.1039,04/25.0/2023,2000,g 11.5,4.0
# From MPEC 2021-F20
277P/LINEAR,e,16.7805,276.2965,152.3459,3.853528,0.1302916,0.50622469,110.1632,04/25.0/2023,2000,g 15.1,4.0
# From MPEC 2021-S45
278P/McNaught,e,6.6950,15.3740,237.5458,3.680328,0.1395964,0.43732049,133.3639,04/25.0/2023,2000,g 14.0,4.0
# From MPEC 2022-K19
279P/LaSagra,e,5.0520,346.2332,5.8524,3.574501,0.1458415,0.39904414,0.7926,04/25.0/2023,2000,g 14.0,4.0
# From MPEC 2023-G31
280P/Larsen,e,11.7721,131.3838,104.7419,4.530088,0.1022219,0.41719722,349.5998,04/25.0/2023,2000,g 12.5,4.0
# From MPEC 2023-D41
281P/MOSS,e,4.7180,87.1776,26.6519,4.878660,0.0914646,0.17303689,7.5460,04/25.0/2023,2000,g 11.0,4.0
# From MPC133426
282P/,e,5.8118,9.2946,217.6065,4.237866,0.1129752,0.18797419,61.8677,04/25.0/2023,2000,g 13.5,2.0
# From MPEC 2022-K19
283P/Spacewatch,e,14.4560,161.1260,22.2088,4.135041,0.1172153,0.48440675,69.6461,04/25.0/2023,2000,g 16.0,2.0
# From MPEC 2023-D41
284P/McNaught,e,11.8606,144.2648,202.4413,3.676375,0.1398216,0.37527576,82.4186,04/25.0/2023,2000,g 13.0,4.0
# From MPEC 2023-B57
285P/LINEAR,e,25.0378,185.5064,178.4064,4.509577,0.1029201,0.61875309,10.5755,04/25.0/2023,2000,g 15.0,4.0
# From MPEC 2022-X67
286P/Christensen,e,17.0427,283.8361,24.9098,4.113730,0.1181273,0.42639858,41.0419,04/25.0/2023,2000,g 14.0,4.0
# From MPEC 2023-A50
287P/Christensen,e,16.3217,139.0428,189.1260,4.163601,0.1160113,0.27126193,351.6383,04/25.0/2023,2000,g 13.5,4.0
# From MPC133426
288P/,e,3.2383,83.1233,280.2090,3.048189,0.1852001,0.20046357,77.6668,04/25.0/2023,2000,g 16.0,2.0
# From MPEC 2023-HD1
289P/Blanpain,e,5.8995,68.8882,9.8414,3.045272,0.1854663,0.68612949,226.3819,04/25.0/2023,2000,g 19.7,4.0
# From MPC 95214
290P/Jager,e,20.0301,302.6649,181.8426,6.217374,0.0635761,0.62728690,214.8942,04/25.0/2023,2000,g 10.5,4.0
# From MPEC 2023-HD1
291P/NEAT,e,6.3085,237.6584,173.5267,4.538973,0.1019220,0.43483697,359.0708,04/25.0/2023,2000,g 13.9,4.0
# From MPEC 2022-K19
292P/Li,e,24.2978,90.9185,319.5495,6.101232,0.0654000,0.58971646,220.1337,04/25.0/2023,2000,g 12.5,4.0
# From MPEC 2022-L66
293P/Spacewatch,e,9.0607,78.3990,40.9376,3.640499,0.1418936,0.41856359,121.5746,04/25.0/2023,2000,g 14.5,4.0
# From MPEC 2020-SI8
294P/LINEAR,e,17.7849,310.7787,236.6502,3.186660,0.1732609,0.60349648,214.7398,04/25.0/2023,2000,g 15.5,4.0
# From MPEC 2022-K19
295P/LINEAR,e,21.0745,7.4304,72.9012,5.304425,0.0806764,0.61718908,264.3953,04/25.0/2023,2000,g 12.0,4.0
# From MPEC 2021-N06
296P/Garradd,e,25.2535,263.5458,349.9707,3.491329,0.1510838,0.47899830,143.4768,04/25.0/2023,2000,g 14.0,4.0
# From MPC102956
297P/Beshore,e,10.3155,95.9478,135.5652,3.469703,0.1524985,0.32115999,124.4372,04/25.0/2023,2000,g 15.0,4.0
# From MPC114609
298P/Christensen,e,7.8706,52.8177,100.6166,3.589944,0.1449014,0.38624994,139.2798,04/25.0/2023,2000,g 15.0,4.0
# From MPEC 2023-HD1
299P/Catalina-PANSTARRS,e,10.4672,271.5975,323.7414,4.388781,0.1071984,0.28092746,320.1566,04/25.0/2023,2000,g 13.1,4.0
# From MPEC 2023-HD1
300P/Catalina,e,5.6740,95.6240,222.9534,2.698612,0.2223276,0.69166696,3.0872,04/25.0/2023,2000,g 17.1,4.0
# From MPC 89014
301P/LINEAR-NEAT,e,10.3367,351.1665,193.5317,5.741491,0.0716419,0.58555551,227.2314,04/25.0/2023,2000,g 13.0,4.0
# From MPEC 2023-HD1
302P/Lemmon-PANSTARRS,e,6.0336,121.7276,208.5059,4.272591,0.1116007,0.23018818,283.6994,04/25.0/2023,2000,g 13.7,4.0
# From MPC 92278
303P/NEAT,e,7.0193,347.9614,356.9969,5.043361,0.0870210,0.51084091,270.2463,04/25.0/2023,2000,g 13.5,4.0
# From MPEC 2022-K19
304P/Ory,e,2.6075,58.9077,335.2706,3.150698,0.1762357,0.60096182,173.5848,04/25.0/2023,2000,g 16.5,4.0
# From MPC101100
305P/Skiff,e,11.6689,240.1031,147.3794,4.639301,0.0986337,0.69400008,303.5721,04/25.0/2023,2000,g 18.0,4.0
# From MPC 92278
306P/LINEAR,e,8.3077,341.3721,0.8907,3.124250,0.1784783,0.59305854,211.9877,04/25.0/2023,2000,g 19.0,4.0
# From MPC 92278
307P/LINEAR,e,4.4350,158.1587,222.1783,5.789231,0.0707575,0.67555313,215.2167,04/25.0/2023,2000,g 15.0,4.0
# From MPEC 2022-C56
308P/Lagerkvist-Carsenty,e,4.8548,63.0383,333.6879,6.599701,0.0581323,0.36464638,168.8790,04/25.0/2023,2000,g 13.0,2.0
# From MPC 94284
309P/LINEAR,e,17.0240,10.1435,49.9449,4.373379,0.1077652,0.61824598,323.4594,04/25.0/2023,2000,g 15.0,4.0
# From MPEC 2022-QD9
310P/Hill,e,13.1274,8.9218,31.6906,4.185152,0.1151164,0.42265445,339.0550,04/25.0/2023,2000,g 13.5,4.0
# From MPEC 2021-BE3
311P/PANSTARRS,e,4.9698,279.2092,144.4636,2.188362,0.3044565,0.11591685,283.1181,04/25.0/2023,2000,g 17.0,4.0
# From MPEC 2021-BE3
312P/NEAT,e,19.7615,144.6702,207.6677,3.469952,0.1524821,0.42760396,143.6101,04/25.0/2023,2000,g 16.0,4.0
# From MPEC 2021-S45
313P/Gibbs,e,10.9787,105.9490,254.8770,3.164189,0.1751098,0.23490081,193.2869,04/25.0/2023,2000,g 15.0,4.0
# From MPC105243
314P/Montani,e,3.9870,267.6075,213.9052,7.256463,0.0504216,0.41699347,120.5058,04/25.0/2023,2000,g  9.5,4.0
# From MPEC 2021-N06
315P/LONEOS,e,17.7342,68.7529,65.7520,4.939817,0.0897714,0.52111986,210.2715,04/25.0/2023,2000,g 11.0,4.0
# From MPC 92279
316P/LONEOS-Christensen,e,9.8307,246.1805,191.3953,4.390975,0.1071181,0.15623773,299.9597,04/25.0/2023,2000,g 13.5,4.0
# From MPEC 2020-C98
317P/WISE,e,11.9554,275.4784,334.8258,2.962164,0.1933261,0.57067746,181.9613,04/25.0/2023,2000,g 17.5,4.0
# From MPC102103
318P/McNaught-Hartley,e,17.8893,35.5022,313.3483,7.506027,0.0479280,0.67491735,131.2172,04/25.0/2023,2000,g  8.5,6.0
# From MPC 97499
319P/Catalina-McNaught,e,15.0955,111.3614,203.6579,3.564699,0.1464434,0.66650650,57.0585,04/25.0/2023,2000,g 15.0,4.0
# From MPC 96281
320P/McNaught,e,4.9045,295.9488,0.7838,3.094454,0.1810623,0.68514571,149.9560,04/25.0/2023,2000,g 20.5,4.0
# From MPC105243
321P/SOHO,e,20.0793,165.0180,172.7452,2.423057,0.2613116,0.98107168,0.0000,10/26.6065/2023,2000,g 20.0,4.0
# From MPC102103
322P/SOHO,e,11.4647,351.4932,56.9203,2.507374,0.2482421,0.97997780,0.0000,08/21.0865/2023,2000,g 19.0,4.0
# From MPEC 2016-Y36
323P/SOHO,e,5.3160,324.4129,353.0285,2.583318,0.2373763,0.98473226,0.0000,03/14.4384/2025,2000,g 20.0,4.0
# From MPEC 2021-W31
324P/LaSagra,e,21.4025,270.5846,57.5458,3.094748,0.1810365,0.15358137,130.3416,04/25.0/2023,2000,g 13.0,4.0
# From MPEC 2022-TA0
325P/Yang-Gao,e,16.6999,257.4454,343.9244,3.528359,0.1487116,0.59356181,58.2462,04/25.0/2023,2000,g 14.0,4.0
# From MPC103849
326P/Hill,e,2.4711,99.8084,278.6509,4.063111,0.1203417,0.31837290,329.9745,04/25.0/2023,2000,g 13.5,4.0
# From MPEC 2023-B57
327P/VanNess,e,36.2504,173.9838,185.0184,3.561851,0.1466191,0.56313671,34.4027,04/25.0/2023,2000,g 16.0,4.0
# From MPC109148
328P/LONEOS-Tucker,e,17.6722,341.6203,30.6017,4.190115,0.1149119,0.55273348,307.1506,04/25.0/2023,2000,g 14.5,4.0
# From MPC101101
329P/LINEAR-Catalina,e,21.7103,87.6542,343.5557,5.187566,0.0834178,0.67834344,225.3068,04/25.0/2023,2000,g 13.5,4.0
# From MPEC 2022-K19
330P/Catalina,e,15.7140,293.0810,188.8421,6.620765,0.0578551,0.54906866,140.7613,04/25.0/2023,2000,g 12.0,4.0
# From MPEC 2022-C56
331P/Gibbs,e,9.7398,216.7517,184.5959,3.005208,0.1891875,0.04131078,176.5111,04/25.0/2023,2000,g 12.0,4.0
# From MPEC 2016-K18
